RAVAN                   
1 41849U 16067B   18356.25961517  .00000498  00000-0  47305-4 0  9999
2 41849  97.9218  87.7975 0007678 250.4403 109.5989 14.98026823115284
CELTEE 1                
1 41850U 16067C   18355.73310663  .00000571  00000-0  55005-4 0  9991
2 41850  97.9201  86.3593 0007389 255.5427 104.4974 14.96915061115153
OPTICUBE 04             
1 41851U 16067D   18356.45385531  .00000076  00000-0  11973-4 0  9994
2 41851  97.9192  86.9467 0007742 255.8229 104.2132 14.96738400115250
AEROCUBE 8D             
1 41852U 16067E   18356.24267723 -.00000175  00000-0 -10062-4 0  9994
2 41852  97.9208  86.5622 0008520 257.8935 102.1331 14.96607627115208
AEROCUBE 8C             
1 41853U 16067F   18355.72646717  .00000405  00000-0  40881-4 0  9997
2 41853  97.9205  85.9890 0008758 259.4792 100.5442 14.96570257115122
PROMETHEUS 2-1          
1 41854U 16067G   18356.31801463  .00000258  00000-0  27859-4 0  9991
2 41854  97.9210  86.6517 0009259 257.4722 102.5464 14.96732299115213
PROMETHEUS 2-3          
1 41855U 16067H   18356.38760629  .00000364  00000-0  37187-4 0  9990
2 41855  97.9212  86.7313 0009414 257.2510 102.7659 14.96733001115228
ITF-2                   
1 41932U 98067KU  18356.53069797  .00382344  83599-4  39704-3 0  9996
2 41932  51.6222  75.6330 0005881 353.7481   6.3459 16.09934912110661
INS-1B                  
1 41954U 17008G   18355.73805326  .00001158  00000-0  51443-4 0  9991
2 41954  97.4246  57.9415 0010681  60.7193 299.5111 15.23490138102557
BGUSAT                  
1 41999U 17008BD  18356.48317559  .00001803  00000-0  74287-4 0  9997
2 41999  97.4304  60.3531 0009791  73.0879 287.1431 15.25370218102125
DIDO-2                  
1 42000U 17008BE  18355.72913462  .00000866  00000-0  39169-4 0  9990
2 42000  97.4261  58.4424 0010211  76.9221 283.3155 15.23564699101959
PEASSS                  
1 42015U 17008BV  18355.73502340  .00001020  00000-0  44437-4 0  9993
2 42015  97.4263  59.1436 0008123  82.9685 277.2476 15.24445258102485
AL-FARABI 1             
1 42016U 17008BW  18355.73577253  .00001318  00000-0  55728-4 0  9994
2 42016  97.4275  59.4979 0007970  82.9580 277.2564 15.24969694102626
NAYIF-1 (EO-88)         
1 42017U 17008BX  18355.72685441  .00001334  00000-0  56323-4 0  9993
2 42017  97.4272  59.4975 0007961  83.1863 277.0280 15.24997707102648
HAVELSAT                
1 42700U 98067LH  18356.48390483  .00079045  00000-0  27018-3 0  9991
2 42700  51.6260 101.9094 0003981 292.8679  67.1906 15.89026323 91753
CXBN-2                  
1 42704U 98067LM  18356.50197914  .00082237  00000-0  29018-3 0  9991
2 42704  51.6294 103.6023 0002086 288.2312  71.8466 15.88381266 91654
PHOENIX                 
1 42706U 98067LP  18356.52781332  .00036887  00000-0  20065-3 0  9991
2 42706  51.6282 109.8605 0001089 219.9202 140.1720 15.79593173 91563
X-CUBESAT               
1 42707U 98067LQ  18356.52853879  .00123730  17029-4  34286-3 0  9995
2 42707  51.6255  99.0815 0003368 314.3043  45.7687 15.93613343 91696
QBEE50-LTU-OC           
1 42708U 98067LR  18356.51233434  .00087223  00000-0  30277-3 0  9993
2 42708  51.6264 102.8735 0002586 304.4464  55.6296 15.88686494 91607
ALTAIR PATHFINDER       
1 42711U 98067LS  18356.49892171  .00018697  00000-0  15330-3 0  9995
2 42711  51.6334 126.3217 0003334 178.9974 181.1031 15.70532278 91004
SHARC                   
1 42712U 98067LT  18356.50847139  .00045204  00000-0  28667-3 0  9993
2 42712  51.6322 124.9331 0002217 225.6259 134.4559 15.76048329 91267
ZA-AEROSAT              
1 42713U 98067LU  18356.47903093  .00036634  00000-0  21380-3 0  9994
2 42713  51.6336 114.8220 0002003 201.0557 159.0361 15.78028841 91151
CSUNSAT 1               
1 42715U 98067LW  18356.49109262  .00042723  00000-0  22845-3 0  9997
2 42715  51.6329 112.6543 0002452 205.1053 154.9830 15.79898802 91184
SPACECUBE               
1 42717U 98067LY  18356.49524879  .00082211  00000-0  29022-3 0  9994
2 42717  51.6221 103.4108 0003587 294.8991  65.1641 15.88366683 90671
HOOPOE                  
1 42718U 98067LZ  18356.15972234  .08813836  12573-4  44196-3 0  9994
2 42718  51.6191  91.1207 0006689  20.3338 341.4464 16.42542197 90809
NJUST-1                 
1 42722U 98067MB  18356.59285412  .00035679  00000-0  23011-3 0  9996
2 42722  51.6371 117.6969 0004110 223.1906 225.6985 15.75768780 90190
LILACSAT-1              
1 42725U 98067ME  18356.49003979  .00072714  00000-0  32259-3 0  9999
2 42725  51.6355 109.5057 0002812 257.2545 152.7335 15.83705532 90203
NSIGHT-1                
1 42726U 98067MF  18356.44627998  .00008558  00000-0  89759-4 0  9991
2 42726  51.6371 135.8714 0004882 213.3007 146.7681 15.65303491 89853
SNUSAT-1                
1 42727U 98067MG  18356.50586203  .00055974  00000-0  25442-3 0  9994
2 42727  51.6307 109.6234 0003646 225.5367 134.5338 15.83291998 90168
POLYITAN-2-SAU          
1 42732U 98067MM  18356.51007463  .00126190  17215-4  35821-3 0  9998
2 42732  51.6279 100.5426 0002453 283.3566  76.7167 15.93151704 90172
SNUSAT-1B               
1 42733U 98067MN  18356.51014626  .00069515  00000-0  27594-3 0  9993
2 42733  51.6275 106.6315 0002744 231.3325 128.7434 15.86045453 90093
BEEAGLESAT              
1 42736U 98067MR  18356.49536334  .00045069  00000-0  23088-3 0  9990
2 42736  51.6307 111.8663 0004428 241.2089 118.8468 15.80805971 90083
UCLSAT                  
1 42765U 17036A   18355.70512069  .00001122  00000-0  51628-4 0  9995
2 42765  97.3778  52.3237 0012883 133.7117 226.5189 15.22305616 83234
LITUANICASAT-2          
1 42768U 17036D   18356.39655869  .00001749  00000-0  79150-4 0  9995
2 42768  97.3801  52.5554 0016863 123.8367 236.4478 15.22097996 83181
AALTO-1                 
1 42775U 17036L   18355.73985886  .00000699  00000-0  34480-4 0  9995
2 42775  97.3767  51.4940 0015551 124.4496 235.8212 15.21044358 83003
URSA MAIOR              
1 42776U 17036M   18356.43849199  .00000737  00000-0  36061-4 0  9990
2 42776  97.3773  52.2732 0015386 122.2760 237.9969 15.21157863 83115
COMPASS 2               
1 42777U 17036N   18356.43425610  .00001383  00000-0  62866-4 0  9999
2 42777  97.3803  53.0098 0014178 124.3385 235.9195 15.22325520 83148
DIAMOND RED             
1 42783U 17036U   18356.41413491  .00000866  00000-0  41065-4 0  9991
2 42783  97.3777  52.7563 0013575 132.0612 228.1782 15.21838796 83135
PEGASUS                 
1 42784U 17036V   18355.70162164  .00001016  00000-0  47329-4 0  9998
2 42784  97.3781  52.1966 0013432 134.1198 226.1146 15.22086849 83032
DIAMOND GREEN           
1 42785U 17036W   18356.41291762  .00000880  00000-0  41668-4 0  9993
2 42785  97.3779  52.7737 0013485 132.6377 227.5998 15.21838852 83120
DIAMOND BLUE            
1 42786U 17036X   18355.68867503  .00000888  00000-0  42028-4 0  9993
2 42786  97.3780  52.0631 0013252 135.0689 225.1622 15.21838874 83092
NUDTSAT                 
1 42787U 17036Y   18356.52324103  .00001567  00000-0  69796-4 0  9998
2 42787  97.3815  53.4199 0011520 126.3247 233.9055 15.22857812 83029
SUCHAI                  
1 42788U 17036Z   18356.41014903  .00001176  00000-0  53783-4 0  9996
2 42788  97.3783  53.0808 0013085 131.3909 228.8454 15.22430396 83228
SKCUBE                  
1 42789U 17036AA  18355.69313234  .00001116  00000-0  51293-4 0  9993
2 42789  97.3781  52.3506 0012890 133.5940 226.6369 15.22359480 83030
VZLUSAT-1               
1 42790U 17036AB  18355.72221392  .00001500  00000-0  66932-4 0  9995
2 42790  97.3791  52.6349 0012519 133.2643 226.9640 15.22865249 83058
ROBUSTA-1B              
1 42792U 17036AD  18355.70873061  .00001127  00000-0  51543-4 0  9998
2 42792  97.3780  52.4693 0012451 134.1687 226.0576 15.22517818 83056
CICERO 6                
1 42793U 17036AE  18355.72968961  .00000800  00000-0  37761-4 0  9998
2 42793  97.3768  52.4009 0011602 134.9423 225.2756 15.22247814 83122
D-SAT                   
1 42794U 17036AF  18356.43241644  .00000214  00000-0  24095-4 0  9995
2 42794  97.5667  43.7151 0127173  16.2931 344.2319 14.90990456 81778
TOKI                    
1 42820U 98067MU  18355.61916319  .00046602  00000-0  25479-3 0  9992
2 42820  51.6311 120.3027 0001925 204.0708 156.0203 15.79370682 83352
MAZAALAI (NUMSAT-1)     
1 42822U 98067MW  18356.21110909  .00044825  00000-0  25281-3 0  9998
2 42822  51.6338 118.2794 0001959 210.9487 149.1399 15.78698065 83410
BRAC ONNESHA            
1 42823U 98067MX  18355.61471782  .00047658  00000-0  26476-3 0  9995
2 42823  51.6303 121.0569 0003585 198.1011 161.9863 15.79001651 83320
NIGERIAEDUSAT-1         
1 42824U 98067MY  18356.50173178  .00041603  00000-0  23681-3 0  9992
2 42824  51.6342 117.2752 0003774 210.0149 150.0636 15.78520879 83448
CORVUS BC2              
1 42846U 17042X   18356.27656378  .00000214  00000-0  26501-4 0  9990
2 42846  97.5827 252.1766 0008272 293.9053  66.1299 14.91900086 78414
CORVUS BC1              
1 42847U 17042Y   18356.51000234  .00000077  00000-0  12938-4 0  9998
2 42847  97.5829 252.4791 0007866 292.8591  67.1798 14.91999753 78448
SILU-1 (SILKROAD 1)     
1 42903U 17021F   18356.48721065  .00061495  00000-0  25410-3 0  9995
2 42903  42.7735 258.4503 0016238 208.3328 149.2219 15.84776460 79654
MIRATA                  
1 43015U 17073C   18356.32042620  .00001649  00000-0  13404-3 0  9998
2 43015  97.7148 279.5583 0257397  19.1750 341.8935 14.78569362 58935
MAKERSAT 0              
1 43016U 17073D   18355.36444662  .00001190  00000-0  97882-4 0  9998
2 43016  97.7179 278.8143 0259176  22.4334 338.7970 14.78441927 58789
ASTERIA                 
1 43020U 98067NH  18356.49563527  .00010173  00000-0  11124-3 0  9997
2 43020  51.6406 145.3004 0002463 158.1056 202.0044 15.63983092 61916
DELLINGR (RBLE)         
1 43021U 98067NJ  18356.48635204  .00006496  00000-0  84522-4 0  9995
2 43021  51.6377 150.4231 0002726 145.9288 214.1881 15.60155337 61841
